NORAD_CAT_ID,OBJECT_NAME,OBJECT_TYPE,EPOCH,MEAN_MOTION,ECCENTRICITY,INCLINATION,RA_OF_ASC_NODE,ARG_OF_PERICENTER,MEAN_ANOMALY,BSTAR,MEAN_MOTION_DOT,MEAN_MOTION_DDOT,TLE_LINE0,TLE_LINE1,TLE_LINE2,SEMIMAJOR_AXIS,PERIOD,APOGEE,PERIGEE,DECAYED
52857.0,STARLINK-4199,PAYLOAD,2024-03-12 03:59:37,15.08827826,0.0001506,53.2179,50.0977,100.193,259.9232,0.00022245,3.253e-05,0.0,0 STARLINK-4199,1 52857U 22062AD  24072.16640567  .00003253  00000-0  22245-3 0  9990,2 52857  53.2179  50.0977 0001506 100.1930 259.9232 15.08827826 96587,6917.918,95.438,540.824,538.741,0.0
52857.0,STARLINK-4199,PAYLOAD,2024-03-12 08:45:46,15.08843314,0.0001526,53.218,49.2034,93.9982,266.1184,3.1014e-05,2.06e-06,0.0,0 STARLINK-4199,1 52857U 22062AD  24072.36511887  .00000206  00000-0  31014-4 0  9994,2 52857  53.2180  49.2034 0001526  93.9982 266.1184 15.08843314 96611,6917.87,95.437,540.791,538.68,0.0
52857.0,STARLINK-4199,PAYLOAD,2024-03-12 15:07:18,15.08842917,0.0001496,53.2181,48.0138,87.6723,272.444,1.6486e-05,-2.6e-07,0.0,0 STARLINK-4199,1 52857U 22062AD  24072.63007984 -.00000026  00000-0  16486-4 0  9999,2 52857  53.2181  48.0138 0001496  87.6723 272.4440 15.08842917 96166,6917.871,95.437,540.771,538.702,0.0
52857.0,STARLINK-4199,PAYLOAD,2024-03-13 05:25:47,15.08832337,0.0001425,53.218,45.3423,99.5186,260.5967,5.0041e-05,5.08e-06,0.0,0 STARLINK-4199,1 52857U 22062AD  24073.22624878  .00000508  00000-0  50041-4 0  9991,2 52857  53.2180  45.3423 0001425  99.5186 260.5967 15.08832337 96740,6917.904,95.438,540.755,538.783,0.0
52857.0,STARLINK-4199,PAYLOAD,2024-03-13 14:58:06,15.08837148,0.0001462,53.2184,43.5579,95.4976,264.6183,0.00010094,1.319e-05,0.0,0 STARLINK-4199,1 52857U 22062AD  24073.62368686  .00001319  00000-0  10094-3 0  9991,2 52857  53.2184  43.5579 0001462  95.4976 264.6183 15.08837148 96312,6917.889,95.438,540.766,538.743,0.0
52857.0,STARLINK-4199,PAYLOAD,2024-03-14 05:16:34,15.08845481,0.0001492,53.2184,40.8818,98.2803,261.8359,8.7388e-05,1.103e-05,0.0,0 STARLINK-4199,1 52857U 22062AD  24074.21984407  .00001103  00000-0  87388-4 0  9994,2 52857  53.2184  40.8818 0001492  98.2803 261.8359 15.08845481 96897,6917.864,95.437,540.761,538.696,0.0
52857.0,STARLINK-4199,PAYLOAD,2024-03-14 21:10:26,15.08836687,0.0001515,53.2178,37.9058,119.0768,241.0376,8.0884e-05,9.99e-06,0.0,0 STARLINK-4199,1 52857U 22062AD  24074.88224684  .00000999  00000-0  80884-4 0  9997,2 52857  53.2178  37.9058 0001515 119.0768 241.0376 15.08836687 96999,6917.891,95.438,540.804,538.707,0.0
52857.0,STARLINK-4199,PAYLOAD,2024-03-15 21:01:13,15.08843907,0.0001541,53.2173,33.4493,88.0604,272.0565,0.00013597,1.877e-05,0.0,0 STARLINK-4199,1 52857U 22062AD  24075.87584593  .00001877  00000-0  13597-3 0  9997,2 52857  53.2173  33.4493 0001541  88.0604 272.0565 15.08843907 96651,6917.868,95.437,540.799,538.667,0.0
52857.0,STARLINK-4199,PAYLOAD,2024-03-16 03:22:45,15.0884271,0.000153,53.2174,32.259,90.0448,270.0719,3.6702e-05,2.96e-06,0.0,0 STARLINK-4199,1 52857U 22062AD  24076.14080655  .00000296  00000-0  36702-4 0  9996,2 52857  53.2174  32.2590 0001530  90.0448 270.0719 15.08842710 97183,6917.872,95.437,540.796,538.679,0.0
52857.0,STARLINK-4199,PAYLOAD,2024-03-17 06:24:19,15.08820352,0.0001543,53.2182,27.2008,102.3388,257.7777,0.00044488,6.796e-05,0.0,0 STARLINK-4199,1 52857U 22062AD  24077.26689437  .00006796  00000-0  44488-3 0  9993,2 52857  53.2182  27.2008 0001543 102.3388 257.7777 15.08820352 97357,6917.94,95.439,540.873,538.738,0.0
52857.0,STARLINK-4199,PAYLOAD,2024-03-17 20:42:47,15.08841573,0.0001559,53.2181,24.5236,97.8263,262.2907,7.1396e-05,8.48e-06,0.0,0 STARLINK-4199,1 52857U 22062AD  24077.86304587  .00000848  00000-0  71396-4 0  9990,2 52857  53.2181  24.5236 0001559  97.8263 262.2907 15.08841573 97440,6917.876,95.437,540.819,538.662,0.0
52857.0,STARLINK-4199,PAYLOAD,2024-03-18 06:15:05,15.08847756,0.0001631,53.2185,22.7388,106.883,253.2341,0.00010876,1.444e-05,0.0,0 STARLINK-4199,1 52857U 22062AD  24078.26047935  .00001444  00000-0  10876-3 0  9994,2 52857  53.2185  22.7388 0001631 106.8830 253.2341 15.08847756 97502,6917.857,95.437,540.85,538.593,0.0
52857.0,STARLINK-4199,PAYLOAD,2024-03-19 02:55:06,15.08839865,0.0001194,53.2184,18.8737,84.151,275.9618,4.0949e-05,3.64e-06,0.0,0 STARLINK-4199,1 52857U 22062AD  24079.12160793  .00000364  00000-0  40949-4 0  9993,2 52857  53.2184  18.8737 0001194  84.1510 275.9618 15.08839865 97636,6917.881,95.438,540.572,538.92,0.0
52857.0,STARLINK-4199,PAYLOAD,2024-03-19 06:05:53,15.08843264,0.000123,53.2186,18.2777,83.6534,276.4598,7.9279e-05,9.74e-06,0.0,0 STARLINK-4199,1 52857U 22062AD  24079.25408566  .00000974  00000-0  79279-4 0  9995,2 52857  53.2186  18.2777 0001230  83.6534 276.4598 15.08843264 97166,6917.87,95.437,540.586,538.885,0.0
52857.0,STARLINK-4199,PAYLOAD,2024-03-20 01:10:31,15.08836139,0.0001611,53.2191,14.7096,120.7661,239.349,-4.3653e-05,-9.83e-06,0.0,0 STARLINK-4199,1 52857U 22062AD  24080.04897431 -.00000983  00000-0 -43653-4 0  9996,2 52857  53.2191  14.7096 0001611 120.7661 239.3490 15.08836139 97773,6917.892,95.438,540.872,538.643,0.0
52857.0,STARLINK-4199,PAYLOAD,2024-03-20 04:21:16,15.08846805,0.0001443,53.2185,14.1132,120.4871,239.6264,6.97e-05,8.22e-06,0.0,0 STARLINK-4199,1 52857U 22062AD  24080.18144568  .00000822  00000-0  69700-4 0  9998,2 52857  53.2185  14.1132 0001443 120.4871 239.6264 15.08846805 97799,6917.86,95.437,540.723,538.726,0.0
52857.0,STARLINK-4199,PAYLOAD,2024-03-21 02:36:41,15.08842388,0.0001216,53.2198,9.9555,90.1331,269.98,7.3657e-05,8.85e-06,0.0,0 STARLINK-4199,1 52857U 22062AD  24081.10881351  .00000885  00000-0  73657-4 0  9994,2 52857  53.2198   9.9555 0001216  90.1331 269.9800 15.08842388 97936,6917.873,95.437,540.579,538.897,0.0
52857.0,STARLINK-4199,PAYLOAD,2024-03-21 12:08:57,15.08871937,0.0001316,53.2188,8.1682,74.052,286.0617,0.00028912,4.32e-05,0.0,0 STARLINK-4199,1 52857U 22062AD  24081.50622501  .00004320  00000-0  28912-3 0  9999,2 52857  53.2188   8.1682 0001316  74.0520 286.0617 15.08871937 97993,6917.783,95.436,540.558,538.737,0.0
52857.0,STARLINK-4199,PAYLOAD,2024-03-21 18:30:33,15.08823129,0.0001689,53.2197,6.9801,112.0523,248.0648,2.707e-05,1.43e-06,0.0,0 STARLINK-4199,1 52857U 22062AD  24081.77122681  .00000143  00000-0  27070-4 0  9996,2 52857  53.2197   6.9801 0001689 112.0523 248.0648 15.08823129 98039,6917.932,95.439,540.965,538.629,0.0
52857.0,STARLINK-4199,PAYLOAD,2024-03-22 04:02:50,15.0885453,0.0001245,53.2193,5.1928,102.1582,257.9549,0.00012022,1.627e-05,0.0,0 STARLINK-4199,1 52857U 22062AD  24082.16864020  .00001627  00000-0  12022-3 0  9998,2 52857  53.2193   5.1928 0001245 102.1582 257.9549 15.08854530 98094,6917.836,95.437,540.562,538.84,0.0
52857.0,STARLINK-4199,PAYLOAD,2024-03-22 18:21:20,15.08842929,0.0001646,53.2186,2.5193,137.4996,222.6124,-0.00011364,-2.096e-05,0.0,0 STARLINK-4199,1 52857U 22062AD  24082.76481677 -.00002096  00000-0 -11364-3 0  9998,2 52857  53.2186   2.5193 0001646 137.4996 222.6124 15.08842929 98183,6917.871,95.437,540.875,538.598,0.0
52857.0,STARLINK-4199,PAYLOAD,2024-03-23 02:18:15,15.08846859,0.0001263,53.2189,1.0371,116.9219,243.1902,-8.141e-07,-3.01e-06,0.0,0 STARLINK-4199,1 52857U 22062AD  24083.09600944 -.00000301  00000-0 -81410-6 0  9994,2 52857  53.2189   1.0371 0001263 116.9219 243.1902 15.08846859 98237,6917.859,95.437,540.598,538.851,0.0
52857.0,STARLINK-4199,PAYLOAD,2024-03-23 18:12:04,15.08860526,0.0001411,53.2189,358.0622,87.7964,272.319,0.00033656,5.075e-05,0.0,0 STARLINK-4199,1 52857U 22062AD  24083.75838675  .00005075  00000-0  33656-3 0  9998,2 52857  53.2189 358.0622 0001411  87.7964 272.3190 15.08860526 98339,6917.818,95.436,540.659,538.707,0.0
52857.0,STARLINK-4199,PAYLOAD,2024-03-23 22:58:13,15.08887799,0.0001258,53.2183,357.1708,77.2178,282.8955,0.0007823,0.000122,0.0,0 STARLINK-4199,1 52857U 22062AD  24083.95709838  .00012200  00000-0  78230-3 0  9993,2 52857  53.2183 357.1708 0001258  77.2178 282.8955 15.08887799 97872,6917.734,95.435,540.47,538.729,0.0
52857.0,STARLINK-4199,PAYLOAD,2024-03-24 03:44:24,15.08829832,0.0001257,53.2186,356.2725,101.1007,259.0126,-0.00026229,-4.459e-05,0.0,0 STARLINK-4199,1 52857U 22062AD  24084.15584448 -.00004459  00000-0 -26229-3 0  9994,2 52857  53.2186 356.2725 0001257 101.1007 259.0126 15.08829832 98399,6917.911,95.438,540.646,538.907,0.0
52857.0,STARLINK-4199,PAYLOAD,2024-03-24 11:41:20,15.08826861,0.000126,53.2184,354.7862,106.0436,254.0695,-0.00027089,-4.595e-05,0.0,0 STARLINK-4199,1 52857U 22062AD  24084.48704816 -.00004595  00000-0 -27089-3 0  9999,2 52857  53.2184 354.7862 0001260 106.0436 254.0695 15.08826861 97952,6917.921,95.438,540.657,538.914,0.0
52857.0,STARLINK-4199,PAYLOAD,2024-03-24 22:49:03,15.08836488,0.0001627,53.2193,352.7065,88.62,271.4978,-5.8126e-05,-1.213e-05,0.0,0 STARLINK-4199,1 52857U 22062AD  24084.95073088 -.00001213  00000-0 -58126-4 0  9992,2 52857  53.2193 352.7065 0001627  88.6200 271.4978 15.08836488 98028,6917.891,95.438,540.882,538.631,0.0
52857.0,STARLINK-4199,PAYLOAD,2024-03-25 03:35:11,15.08849604,0.0001283,53.2179,351.812,110.3901,249.7229,0.0001548,2.177e-05,0.0,0 STARLINK-4199,1 52857U 22062AD  24085.14943977  .00002177  00000-0  15480-3 0  9990,2 52857  53.2179 351.8120 0001283 110.3901 249.7229 15.08849604 98541,6917.851,95.437,540.604,538.828,0.0
52857.0,STARLINK-4199,PAYLOAD,2024-03-25 21:04:29,15.08801691,0.0001223,53.2194,348.5437,87.0072,273.106,-0.00058874,-9.635e-05,0.0,0 STARLINK-4199,1 52857U 22062AD  24085.87811348 -.00009635  00000-0 -58874-3 0  9998,2 52857  53.2194 348.5437 0001223  87.0072 273.1060 15.08801691 98655,6917.997,95.44,540.709,539.016,0.0
52857.0,STARLINK-4199,PAYLOAD,2024-03-25 22:39:52,15.0881188,0.0001273,53.2189,348.2459,93.9863,266.1275,-0.00064022,-0.00010455,0.0,0 STARLINK-4199,1 52857U 22062AD  24085.94435260 -.00010455  00000-0 -64022-3 0  9995,2 52857  53.2189 348.2459 0001273  93.9863 266.1275 15.08811880 98177,6917.966,95.439,540.712,538.951,0.0
